STARLINK-1587
1 46157U 20057AS  26061.25002314  .00365918  00000+0  11702-2 0  9993
2 46157  53.0332 254.3673 0003282 224.0166 319.4025 15.89594068  5977
STARLINK-1814
1 46712U 20073AU  26061.16668981  .00309618  00000+0  10333-2 0  9990
2 46712  53.0376 223.2045 0005470 305.2988 172.9612 15.88866863  6019
STARLINK-1726
1 46362U 20062AP  26061.16668981  .00436344  00000+0  14352-2 0  9991
2 46362  53.0385 298.6220 0007869 144.3816  24.9312 15.88839519  6007
STARLINK-2022
1 47643U 21012Z   26061.16668981  .00375825  00000+0  12769-2 0  9996
2 47643  53.0134  16.0184 0003748  79.9141 176.7678 15.88357720  5862
STARLINK-1053
1 44758U 19074AX  26061.25002314  .00218888  00000+0  77414-3 0  9991
2 44758  53.0288 121.3358 0007036  27.1913 273.3026 15.87911486  5994
